[{"CCSDS_OMM_VERS":"2.0","COMMENT":"GENERATED VIA SPACE-TRACK.ORG API","CREATION_DATE":"2020-06-09T03:15:14","ORIGINATOR":"18 SPCS","OBJECT_NAME":"STARLINK-1098","OBJECT_ID":"2020-001D","CENTER_NAME":"EARTH","REF_FRAME":"TEME","TIME_SYSTEM":"UTC","MEAN_ELEMENT_THEORY":"SGP4","EPOCH":"2020-06-08T22:00:01.999584","MEAN_MOTION":"15.05607357","ECCENTRICITY":"0.00015610","INCLINATION":"53.0004","RA_OF_ASC_NODE":"52.8635","ARG_OF_PERICENTER":"91.4187","MEAN_ANOMALY":"297.1844","EPHEMERIS_TYPE":"0","CLASSIFICATION_TYPE":"U","NORAD_CAT_ID":"44917","ELEMENT_SET_NO":"999","REV_AT_EPOCH":"176","BSTAR":"-0.00205980000000","MEAN_MOTION_DOT":"-0.00030186","MEAN_MOTION_DDOT":"0.0000000000000","SEMIMAJOR_AXIS":"6927.778","PERIOD":"95.642","APOAPSIS":"550.725","PERIAPSIS":"548.562","OBJECT_TYPE":"PAYLOAD","RCS_SIZE":"LARGE","COUNTRY_CODE":"US","LAUNCH_DATE":"2020-01-07","SITE":"AFETR","DECAY_DATE":null,"FILE":"2761504","GP_ID":"155319516","TLE_LINE0":"0 STARLINK-1098","TLE_LINE1":"1 44917U 20001D   20160.91668981 -.00030186 +00000-0 -20598-2 0  9991","TLE_LINE2":"2 44917 053.0004 052.8635 0001561 091.4187 297.1844 15.05607357001769"},{"CCSDS_OMM_VERS":"2.0","COMMENT":"GENERATED VIA SPACE-TRACK.ORG API","CREATION_DATE":"2020-06-09T02:26:09","ORIGINATOR":"18 SPCS","OBJECT_NAME":"STARLINK-1098","OBJECT_ID":"2020-001D","CENTER_NAME":"EARTH","REF_FRAME":"TEME","TIME_SYSTEM":"UTC","MEAN_ELEMENT_THEORY":"SGP4","EPOCH":"2020-06-09T02:00:01.000224","MEAN_MOTION":"15.05579250","ECCENTRICITY":"0.00015680","INCLINATION":"53.0006","RA_OF_ASC_NODE":"52.1160","ARG_OF_PERICENTER":"87.4546","MEAN_ANOMALY":"124.9536","EPHEMERIS_TYPE":"0","CLASSIFICATION_TYPE":"U","NORAD_CAT_ID":"44917","ELEMENT_SET_NO":"999","REV_AT_EPOCH":"2340","BSTAR":"0.00187760000000","MEAN_MOTION_DOT":"0.00027182","MEAN_MOTION_DDOT":"0.0000000000000","SEMIMAJOR_AXIS":"6927.865","PERIOD":"95.644","APOAPSIS":"550.816","PERIAPSIS":"548.643","OBJECT_TYPE":"PAYLOAD","RCS_SIZE":"LARGE","COUNTRY_CODE":"US","LAUNCH_DATE":"2020-01-07","SITE":"AFETR","DECAY_DATE":null,"FILE":"2761485","GP_ID":"155299925","TLE_LINE0":"0 STARLINK-1098","TLE_LINE1":"1 44917U 20001D   20161.08334491  .00027182  00000-0  18776-2 0  9991","TLE_LINE2":"2 44917  53.0006  52.1160 0001568  87.4546 124.9536 15.05579250 23408"},{"CCSDS_OMM_VERS":"2.0","COMMENT":"GENERATED VIA SPACE-TRACK.ORG API","CREATION_DATE":"2020-06-09T05:36:09","ORIGINATOR":"18 SPCS","OBJECT_NAME":"STARLINK-1098","OBJECT_ID":"2020-001D","CENTER_NAME":"EARTH","REF_FRAME":"TEME","TIME_SYSTEM":"UTC","MEAN_ELEMENT_THEORY":"SGP4","EPOCH":"2020-06-09T04:00:00.999936","MEAN_MOTION":"15.05577002","ECCENTRICITY":"0.00015330","INCLINATION":"53.0004","RA_OF_ASC_NODE":"51.7419","ARG_OF_PERICENTER":"87.0738","MEAN_ANOMALY":"217.2631","EPHEMERIS_TYPE":"0","CLASSIFICATION_TYPE":"U","NORAD_CAT_ID":"44917","ELEMENT_SET_NO":"999","REV_AT_EPOCH":"2341","BSTAR":"0.00260870000000","MEAN_MOTION_DOT":"0.00037931","MEAN_MOTION_DDOT":"0.0000000000000","SEMIMAJOR_AXIS":"6927.872","PERIOD":"95.644","APOAPSIS":"550.799","PERIAPSIS":"548.675","OBJECT_TYPE":"PAYLOAD","RCS_SIZE":"LARGE","COUNTRY_CODE":"US","LAUNCH_DATE":"2020-01-07","SITE":"AFETR","DECAY_DATE":null,"FILE":"2761518","GP_ID":"155340046","TLE_LINE0":"0 STARLINK-1098","TLE_LINE1":"1 44917U 20001D   20161.16667824  .00037931  00000-0  26087-2 0  9996","TLE_LINE2":"2 44917  53.0004  51.7419 0001533  87.0738 217.2631 15.05577002 23415"},{"CCSDS_OMM_VERS":"2.0","COMMENT":"GENERATED VIA SPACE-TRACK.ORG API","CREATION_DATE":"2020-06-09T10:26:09","ORIGINATOR":"18 SPCS","OBJECT_NAME":"STARLINK-1098","OBJECT_ID":"2020-001D","CENTER_NAME":"EARTH","REF_FRAME":"TEME","TIME_SYSTEM":"UTC","MEAN_ELEMENT_THEORY":"SGP4","EPOCH":"2020-06-09T10:00:01.999584","MEAN_MOTION":"15.05576568","ECCENTRICITY":"0.00013740","INCLINATION":"53.0008","RA_OF_ASC_NODE":"50.6181","ARG_OF_PERICENTER":"93.9901","MEAN_ANOMALY":"126.1865","EPHEMERIS_TYPE":"0","CLASSIFICATION_TYPE":"U","NORAD_CAT_ID":"44917","ELEMENT_SET_NO":"999","REV_AT_EPOCH":"2345","BSTAR":"-0.00165100000000","MEAN_MOTION_DOT":"-0.00024250","MEAN_MOTION_DDOT":"0.0000000000000","SEMIMAJOR_AXIS":"6927.873","PERIOD":"95.644","APOAPSIS":"550.690","PERIAPSIS":"548.786","OBJECT_TYPE":"PAYLOAD","RCS_SIZE":"LARGE","COUNTRY_CODE":"US","LAUNCH_DATE":"2020-01-07","SITE":"AFETR","DECAY_DATE":null,"FILE":"2761802","GP_ID":"155346940","TLE_LINE0":"0 STARLINK-1098","TLE_LINE1":"1 44917U 20001D   20161.41668981 -.00024250  00000-0 -16510-2 0  9991","TLE_LINE2":"2 44917  53.0008  50.6181 0001374  93.9901 126.1865 15.05576568 23451"},{"CCSDS_OMM_VERS":"2.0","COMMENT":"GENERATED VIA SPACE-TRACK.ORG API","CREATION_DATE":"2020-06-09T17:37:37","ORIGINATOR":"18 SPCS","OBJECT_NAME":"STARLINK-1098","OBJECT_ID":"2020-001D","CENTER_NAME":"EARTH","REF_FRAME":"TEME","TIME_SYSTEM":"UTC","MEAN_ELEMENT_THEORY":"SGP4","EPOCH":"2020-06-09T14:00:01.000224","MEAN_MOTION":"15.05540694","ECCENTRICITY":"0.00013920","INCLINATION":"53.0006","RA_OF_ASC_NODE":"49.8695","ARG_OF_PERICENTER":"98.9621","MEAN_ANOMALY":"304.9984","EPHEMERIS_TYPE":"0","CLASSIFICATION_TYPE":"U","NORAD_CAT_ID":"44917","ELEMENT_SET_NO":"999","REV_AT_EPOCH":"176","BSTAR":"0.00297150000000","MEAN_MOTION_DOT":"0.00043236","MEAN_MOTION_DDOT":"0.0000000000000","SEMIMAJOR_AXIS":"6927.983","PERIOD":"95.646","APOAPSIS":"550.812","PERIAPSIS":"548.884","OBJECT_TYPE":"PAYLOAD","RCS_SIZE":"LARGE","COUNTRY_CODE":"US","LAUNCH_DATE":"2020-01-07","SITE":"AFETR","DECAY_DATE":null,"FILE":"2762041","GP_ID":"155370374","TLE_LINE0":"0 STARLINK-1098","TLE_LINE1":"1 44917U 20001D   20161.58334491 +.00043236 +00000-0 +29715-2 0  9999","TLE_LINE2":"2 44917 053.0006 049.8695 0001392 098.9621 304.9984 15.05540694001762"},{"CCSDS_OMM_VERS":"2.0","COMMENT":"GENERATED VIA SPACE-TRACK.ORG API","CREATION_DATE":"2020-06-09T17:56:09","ORIGINATOR":"18 SPCS","OBJECT_NAME":"STARLINK-1098","OBJECT_ID":"2020-001D","CENTER_NAME":"EARTH","REF_FRAME":"TEME","TIME_SYSTEM":"UTC","MEAN_ELEMENT_THEORY":"SGP4","EPOCH":"2020-06-09T16:00:00.999936","MEAN_MOTION":"15.05557808","ECCENTRICITY":"0.00014590","INCLINATION":"53.0007","RA_OF_ASC_NODE":"49.4954","ARG_OF_PERICENTER":"99.3017","MEAN_ANOMALY":"36.5707","EPHEMERIS_TYPE":"0","CLASSIFICATION_TYPE":"U","NORAD_CAT_ID":"44917","ELEMENT_SET_NO":"999","REV_AT_EPOCH":"2349","BSTAR":"0.00144930000000","MEAN_MOTION_DOT":"0.00020887","MEAN_MOTION_DDOT":"0.0000000000000","SEMIMAJOR_AXIS":"6927.930","PERIOD":"95.645","APOAPSIS":"550.806","PERIAPSIS":"548.785","OBJECT_TYPE":"PAYLOAD","RCS_SIZE":"LARGE","COUNTRY_CODE":"US","LAUNCH_DATE":"2020-01-07","SITE":"AFETR","DECAY_DATE":null,"FILE":"2762044","GP_ID":"155372322","TLE_LINE0":"0 STARLINK-1098","TLE_LINE1":"1 44917U 20001D   20161.66667824  .00020887  00000-0  14493-2 0  9991","TLE_LINE2":"2 44917  53.0007  49.4954 0001459  99.3017  36.5707 15.05557808 23495"},{"CCSDS_OMM_VERS":"2.0","COMMENT":"GENERATED VIA SPACE-TRACK.ORG API","CREATION_DATE":"2020-06-10T05:01:22","ORIGINATOR":"18 SPCS","OBJECT_NAME":"STARLINK-1098","OBJECT_ID":"2020-001D","CENTER_NAME":"EARTH","REF_FRAME":"TEME","TIME_SYSTEM":"UTC","MEAN_ELEMENT_THEORY":"SGP4","EPOCH":"2020-06-09T22:00:00.999936","MEAN_MOTION":"15.05576552","ECCENTRICITY":"0.00014260","INCLINATION":"53.0005","RA_OF_ASC_NODE":"48.3745","ARG_OF_PERICENTER":"92.6586","MEAN_ANOMALY":"318.9748","EPHEMERIS_TYPE":"0","CLASSIFICATION_TYPE":"U","NORAD_CAT_ID":"44917","ELEMENT_SET_NO":"999","REV_AT_EPOCH":"176","BSTAR":"-0.00158110000000","MEAN_MOTION_DOT":"-0.00023239","MEAN_MOTION_DDOT":"0.0000000000000","SEMIMAJOR_AXIS":"6927.873","PERIOD":"95.644","APOAPSIS":"550.726","PERIAPSIS":"548.750","OBJECT_TYPE":"PAYLOAD","RCS_SIZE":"LARGE","COUNTRY_CODE":"US","LAUNCH_DATE":"2020-01-07","SITE":"AFETR","DECAY_DATE":null,"FILE":"2762242","GP_ID":"155395273","TLE_LINE0":"0 STARLINK-1098","TLE_LINE1":"1 44917U 20001D   20161.91667824 -.00023239 +00000-0 -15811-2 0  9990","TLE_LINE2":"2 44917 053.0005 048.3745 0001426 092.6586 318.9748 15.05576552001765"},{"CCSDS_OMM_VERS":"2.0","COMMENT":"GENERATED VIA SPACE-TRACK.ORG API","CREATION_DATE":"2020-06-10T02:06:09","ORIGINATOR":"18 SPCS","OBJECT_NAME":"STARLINK-1098","OBJECT_ID":"2020-001D","CENTER_NAME":"EARTH","REF_FRAME":"TEME","TIME_SYSTEM":"UTC","MEAN_ELEMENT_THEORY":"SGP4","EPOCH":"2020-06-10T00:00:00.999648","MEAN_MOTION":"15.05565416","ECCENTRICITY":"0.00014440","INCLINATION":"53.0006","RA_OF_ASC_NODE":"48.0007","ARG_OF_PERICENTER":"90.6591","MEAN_ANOMALY":"52.8993","EPHEMERIS_TYPE":"0","CLASSIFICATION_TYPE":"U","NORAD_CAT_ID":"44917","ELEMENT_SET_NO":"999","REV_AT_EPOCH":"2354","BSTAR":"-0.00044305000000","MEAN_MOTION_DOT":"-0.00006726","MEAN_MOTION_DDOT":"0.0000000000000","SEMIMAJOR_AXIS":"6927.907","PERIOD":"95.645","APOAPSIS":"550.773","PERIAPSIS":"548.772","OBJECT_TYPE":"PAYLOAD","RCS_SIZE":"LARGE","COUNTRY_CODE":"US","LAUNCH_DATE":"2020-01-07","SITE":"AFETR","DECAY_DATE":null,"FILE":"2762228","GP_ID":"155376002","TLE_LINE0":"0 STARLINK-1098","TLE_LINE1":"1 44917U 20001D   20162.00001157 -.00006726  00000-0 -44305-3 0  9995","TLE_LINE2":"2 44917  53.0006  48.0007 0001444  90.6591  52.8993 15.05565416 23541"}]